[{"OBJECT_NAME":"STARLINK-30837","OBJECT_ID":"2023-170G","EPOCH":"2026-03-09T22:00:01.999584","MEAN_MOTION":15.26749672,"ECCENTRICITY":0.00011994,"INCLINATION":43.0006,"RA_OF_ASC_NODE":193.2309,"ARG_OF_PERICENTER":284.4029,"MEAN_ANOMALY":325.8313,"EPHEMERIS_TYPE":0,"CLASSIFICATION_TYPE":"U","NORAD_CAT_ID":58212,"ELEMENT_SET_NO":999,"REV_AT_EPOCH":572,"BSTAR":0.00067439166,"MEAN_MOTION_DOT":0.00017879,"MEAN_MOTION_DDOT":0},{"OBJECT_NAME":"FLOCK 4G-3","OBJECT_ID":"2025-009AG","EPOCH":"2026-03-09T19:14:30.392160","MEAN_MOTION":15.2717931,"ECCENTRICITY":0.00013196,"INCLINATION":97.4062,"RA_OF_ASC_NODE":151.4068,"ARG_OF_PERICENTER":293.2042,"MEAN_ANOMALY":66.9058,"EPHEMERIS_TYPE":0,"CLASSIFICATION_TYPE":"U","NORAD_CAT_ID":62639,"ELEMENT_SET_NO":999,"REV_AT_EPOCH":6372,"BSTAR":0.0004338875,"MEAN_MOTION_DOT":0.00011494,"MEAN_MOTION_DDOT":0}]
